NORAD_CAT_ID,OBJECT_NAME,OBJECT_TYPE,EPOCH,MEAN_MOTION,ECCENTRICITY,INCLINATION,RA_OF_ASC_NODE,ARG_OF_PERICENTER,MEAN_ANOMALY,BSTAR,MEAN_MOTION_DOT,MEAN_MOTION_DDOT,TLE_LINE0,TLE_LINE1,TLE_LINE2,SEMIMAJOR_AXIS,PERIOD,APOGEE,PERIGEE,DECAYED
55436.0,STARLINK-5640,PAYLOAD,2024-01-26 18:48:24,14.98322029,0.000318,69.9982,253.2733,277.4292,82.6506,0.00022752,2.622e-05,0.0,0 STARLINK-5640,1 55436U 23014AX  24026.78362057  .00002622  00000-0  22752-3 0  9998,2 55436  69.9982 253.2733 0003180 277.4292  82.6506 14.98322029 54352,6950.218,96.108,574.293,569.872,0.0
55436.0,STARLINK-5640,PAYLOAD,2024-01-27 06:01:20,14.98331933,0.0002999,69.9982,252.095,273.3229,86.7587,0.00029359,3.412e-05,0.0,0 STARLINK-5640,1 55436U 23014AX  24027.25093545  .00003412  00000-0  29359-3 0  9992,2 55436  69.9982 252.0950 0002999 273.3229  86.7587 14.98331933 54428,6950.187,96.107,574.136,569.968,0.0
55436.0,STARLINK-5640,PAYLOAD,2024-01-27 14:02:00,14.98337715,0.0003053,69.998,251.2538,272.8127,87.2682,0.00024347,2.814e-05,0.0,0 STARLINK-5640,1 55436U 23014AX  24027.58473288  .00002814  00000-0  24347-3 0  9991,2 55436  69.9980 251.2538 0003053 272.8127  87.2682 14.98337715 55418,6950.169,96.107,574.156,569.912,0.0
55436.0,STARLINK-5640,PAYLOAD,2024-01-27 22:02:40,14.98343642,0.0003012,69.998,250.4124,272.4662,87.6152,0.00030872,3.594e-05,0.0,0 STARLINK-5640,1 55436U 23014AX  24027.91852723  .00003594  00000-0  30872-3 0  9999,2 55436  69.9980 250.4124 0003012 272.4662  87.6152 14.98343642 55462,6950.151,96.106,574.109,569.922,0.0
55436.0,STARLINK-5640,PAYLOAD,2024-01-28 01:14:56,14.9834691,0.0003005,69.9981,250.0758,272.4171,87.6644,0.00035445,4.141e-05,0.0,0 STARLINK-5640,1 55436U 23014AX  24028.05204498  .00004141  00000-0  35445-3 0  9995,2 55436  69.9981 250.0758 0003005 272.4171  87.6644 14.98346910 54544,6950.141,96.106,574.094,569.917,0.0
55436.0,STARLINK-5640,PAYLOAD,2024-01-28 18:52:25,14.98340404,0.0002805,69.9982,248.2236,270.5531,89.5306,8.3276e-05,9.01e-06,0.0,0 STARLINK-5640,1 55436U 23014AX  24028.78640887  .00000901  00000-0  83276-4 0  9997,2 55436  69.9982 248.2236 0002805 270.5531  89.5306 14.98340404 54651,6950.161,96.106,573.975,570.076,0.0
55436.0,STARLINK-5640,PAYLOAD,2024-01-28 22:04:41,14.98339821,0.0002818,69.9982,247.887,270.8588,89.2248,6.9362e-05,7.35e-06,0.0,0 STARLINK-5640,1 55436U 23014AX  24028.91992847  .00000735  00000-0  69362-4 0  9993,2 55436  69.9982 247.8870 0002818 270.8588  89.2248 14.98339821 55619,6950.163,96.106,573.986,570.069,0.0
55436.0,STARLINK-5640,PAYLOAD,2024-01-29 01:16:57,14.98340613,0.0002817,69.9982,247.5504,271.1922,88.8914,7.141e-05,7.59e-06,0.0,0 STARLINK-5640,1 55436U 23014AX  24029.05344679  .00000759  00000-0  71410-4 0  9996,2 55436  69.9982 247.5504 0002817 271.1922  88.8914 14.98340613 55633,6950.16,96.106,573.983,570.067,0.0
55436.0,STARLINK-5640,PAYLOAD,2024-01-29 23:42:50,14.98339574,0.0002496,69.9991,245.1954,259.1194,100.9684,-4.1104e-05,-5.83e-06,0.0,0 STARLINK-5640,1 55436U 23014AX  24029.98808321 -.00000583  00000-0 -41104-4 0  9991,2 55436  69.9991 245.1954 0002496 259.1194 100.9684 14.98339574 54831,6950.163,96.106,573.763,570.294,0.0
55436.0,STARLINK-5640,PAYLOAD,2024-01-30 22:08:43,14.98332309,0.0002829,69.9982,242.8375,267.5923,92.4912,1.8531e-05,1.28e-06,0.0,0 STARLINK-5640,1 55436U 23014AX  24030.92272232  .00000128  00000-0  18531-4 0  9994,2 55436  69.9982 242.8375 0002829 267.5923  92.4912 14.98332309 55913,6950.186,96.107,574.017,570.085,0.0
55436.0,STARLINK-5640,PAYLOAD,2024-01-30 23:44:51,14.98332211,0.000286,69.9981,242.6689,269.0545,91.0286,1.4938e-05,8.5e-07,0.0,0 STARLINK-5640,1 55436U 23014AX  24030.98948233  .00000085  00000-0  14938-4 0  9990,2 55436  69.9981 242.6689 0002860 269.0545  91.0286 14.98332211 54987,6950.186,96.107,574.039,570.063,0.0
55436.0,STARLINK-5640,PAYLOAD,2024-01-31 23:46:52,14.98331254,0.0002927,69.998,240.1438,269.0891,90.9933,8.4402e-05,9.14e-06,0.0,0 STARLINK-5640,1 55436U 23014AX  24031.99088020  .00000914  00000-0  84402-4 0  9995,2 55436  69.9980 240.1438 0002927 269.0891  90.9933 14.98331254 55130,6950.189,96.107,574.088,570.02,0.0
55436.0,STARLINK-5640,PAYLOAD,2024-02-01 12:35:56,14.98331169,0.0002917,69.9979,238.7973,268.9351,91.1473,7.1411e-05,7.59e-06,0.0,0 STARLINK-5640,1 55436U 23014AX  24032.52496059  .00000759  00000-0  71411-4 0  9993,2 55436  69.9979 238.7973 0002917 268.9351  91.1473 14.98331169 56153,6950.189,96.107,574.082,570.027,0.0
55436.0,STARLINK-5640,PAYLOAD,2024-02-01 23:48:52,14.98332782,0.0002897,69.998,237.6191,269.0662,91.0165,8.25e-05,8.92e-06,0.0,0 STARLINK-5640,1 55436U 23014AX  24032.99227898  .00000892  00000-0  82500-4 0  9996,2 55436  69.9980 237.6191 0002897 269.0662  91.0165 14.98332782 55281,6950.184,96.107,574.063,570.036,0.0
55436.0,STARLINK-5640,PAYLOAD,2024-02-02 14:14:05,14.98332197,0.0002867,69.9989,236.1053,273.8035,86.2796,5.0731e-05,5.12e-06,0.0,0 STARLINK-5640,1 55436U 23014AX  24033.59311964  .00000512  00000-0  50731-4 0  9991,2 55436  69.9989 236.1053 0002867 273.8035  86.2796 14.98332197 56316,6950.186,96.107,574.044,570.058,0.0
55436.0,STARLINK-5640,PAYLOAD,2024-02-02 22:14:45,14.98331945,0.0002816,69.9984,235.2629,266.553,93.5307,4.6182e-05,4.58e-06,0.0,0 STARLINK-5640,1 55436U 23014AX  24033.92691876  .00000458  00000-0  46182-4 0  9995,2 55436  69.9984 235.2629 0002816 266.5530  93.5307 14.98331945 56367,6950.187,96.107,574.009,570.095,0.0
55436.0,STARLINK-5640,PAYLOAD,2024-02-02 23:50:53,14.98332044,0.0002814,69.9985,235.0945,266.4513,93.6325,4.6274e-05,4.59e-06,0.0,0 STARLINK-5640,1 55436U 23014AX  24033.99367861  .00000459  00000-0  46274-4 0  9999,2 55436  69.9985 235.0945 0002814 266.4513  93.6325 14.98332044 55434,6950.187,96.107,574.007,570.096,0.0
55436.0,STARLINK-5640,PAYLOAD,2024-02-03 22:16:46,14.98330139,0.0002779,69.9985,232.7379,266.6957,93.3884,1.8956e-05,1.33e-06,0.0,0 STARLINK-5640,1 55436U 23014AX  24034.92832029  .00000133  00000-0  18956-4 0  9991,2 55436  69.9985 232.7379 0002779 266.6957  93.3884 14.98330139 56513,6950.192,96.107,573.989,570.126,0.0
55436.0,STARLINK-5640,PAYLOAD,2024-02-04 12:41:59,14.98331648,0.0002786,69.9985,231.2229,266.3617,93.7224,4.7642e-05,4.76e-06,0.0,0 STARLINK-5640,1 55436U 23014AX  24035.52915899  .00000476  00000-0  47642-4 0  9999,2 55436  69.9985 231.2229 0002786 266.3617  93.7224 14.98331648 55662,6950.188,96.107,573.989,570.116,0.0
55436.0,STARLINK-5640,PAYLOAD,2024-02-04 14:18:07,14.98331965,0.000278,69.9985,231.0546,265.8404,94.2437,5.1031e-05,5.16e-06,0.0,0 STARLINK-5640,1 55436U 23014AX  24035.59591860  .00000516  00000-0  51031-4 0  9996,2 55436  69.9985 231.0546 0002780 265.8404  94.2437 14.98331965 56614,6950.187,96.107,573.984,570.12,0.0
55436.0,STARLINK-5640,PAYLOAD,2024-02-04 22:18:47,14.98331585,0.0002806,69.9985,230.2129,266.6448,93.439,4.0141e-05,3.86e-06,0.0,0 STARLINK-5640,1 55436U 23014AX  24035.92971866  .00000386  00000-0  40141-4 0  9996,2 55436  69.9985 230.2129 0002806 266.6448  93.4390 14.98331585 56660,6950.188,96.107,574.003,570.103,0.0
55436.0,STARLINK-5640,PAYLOAD,2024-02-05 12:44:00,14.98330445,0.0002853,69.9985,228.6976,269.6994,90.3838,6.0327e-05,6.27e-06,0.0,0 STARLINK-5640,1 55436U 23014AX  24036.53055916  .00000627  00000-0  60327-4 0  9999,2 55436  69.9985 228.6976 0002853 269.6994  90.3838 14.98330445 55815,6950.192,96.107,574.039,570.074,0.0
55436.0,STARLINK-5640,PAYLOAD,2024-02-05 14:20:08,14.9833081,0.0002864,69.9984,228.5291,269.4431,90.64,6.2393e-05,6.52e-06,0.0,0 STARLINK-5640,1 55436U 23014AX  24036.59731888  .00000652  00000-0  62393-4 0  9997,2 55436  69.9984 228.5291 0002864 269.4431  90.6400 14.98330810 56768,6950.19,96.107,574.046,570.065,0.0
55436.0,STARLINK-5640,PAYLOAD,2024-02-05 22:20:48,14.98333998,0.0002833,69.9986,227.6876,269.8411,90.2423,9.5859e-05,1.051e-05,0.0,0 STARLINK-5640,1 55436U 23014AX  24036.93111582  .00001051  00000-0  95859-4 0  9995,2 55436  69.9986 227.6876 0002833 269.8411  90.2423 14.98333998 56814,6950.181,96.107,574.015,570.077,0.0
55436.0,STARLINK-5640,PAYLOAD,2024-02-06 14:22:07,14.98354036,0.0003002,69.9983,226.0044,269.4956,90.5859,0.00026276,3.045e-05,0.0,0 STARLINK-5640,1 55436U 23014AX  24037.59869376  .00003045  00000-0  26276-3 0  9990,2 55436  69.9983 226.0044 0003002 269.4956  90.5859 14.98354036 56913,6950.119,96.105,574.07,569.897,0.0
55436.0,STARLINK-5640,PAYLOAD,2024-02-06 19:10:30,14.98357049,0.000299,69.9984,225.4996,269.7946,90.2871,0.00029968,3.487e-05,0.0,0 STARLINK-5640,1 55436U 23014AX  24037.79896978  .00003487  00000-0  29968-3 0  9991,2 55436  69.9984 225.4996 0002990 269.7946  90.2871 14.98357049 56008,6950.109,96.105,574.052,569.896,0.0
55436.0,STARLINK-5640,PAYLOAD,2024-02-06 22:22:46,14.98359392,0.0002985,69.9984,225.1628,269.4143,90.6674,0.00033666,3.929e-05,0.0,0 STARLINK-5640,1 55436U 23014AX  24037.93248766  .00003929  00000-0  33666-3 0  9994,2 55436  69.9984 225.1628 0002985 269.4143  90.6674 14.98359392 56960,6950.102,96.105,574.042,569.892,0.0
55436.0,STARLINK-5640,PAYLOAD,2024-02-07 14:24:08,14.9833563,0.0002614,70.0004,223.4836,257.9614,102.1252,0.00012572,1.408e-05,0.0,0 STARLINK-5640,1 55436U 23014AX  24038.60010331  .00001408  00000-0  12572-3 0  9997,2 55436  70.0004 223.4836 0002614 257.9614 102.1252 14.98335630 57064,6950.175,96.107,573.857,570.224,0.0
55436.0,STARLINK-5640,PAYLOAD,2024-02-07 19:12:33,14.9832762,0.000253,70.0003,222.9765,256.8086,103.2791,-5.2285e-05,-7.17e-06,0.0,0 STARLINK-5640,1 55436U 23014AX  24038.80039038 -.00000717  00000-0 -52285-4 0  9994,2 55436  70.0003 222.9765 0002530 256.8086 103.2791 14.98327620 56155,6950.2,96.107,573.824,570.307,0.0
55436.0,STARLINK-5640,PAYLOAD,2024-02-07 20:48:41,14.98325586,0.0002723,69.9999,222.809,256.6593,103.4263,-9.0224e-05,-1.169e-05,0.0,0 STARLINK-5640,1 55436U 23014AX  24038.86715186 -.00001169  00000-0 -90224-4 0  9992,2 55436  69.9999 222.8090 0002723 256.6593 103.4263 14.98325586 57102,6950.207,96.107,573.964,570.179,0.0
